[{"OBJECT_NAME":"ONEWEB-0674","OBJECT_ID":"2023-029AP","EPOCH":"2025-12-16T08:17:44.659392","MEAN_MOTION":13.14503867,"ECCENTRICITY":0.00022825,"INCLINATION":87.8987,"RA_OF_ASC_NODE":326.1612,"ARG_OF_PERICENTER":89.4979,"MEAN_ANOMALY":270.6413,"EPHEMERIS_TYPE":0,"CLASSIFICATION_TYPE":"U","NORAD_CAT_ID":55833,"ELEMENT_SET_NO":999,"REV_AT_EPOCH":13539,"BSTAR":-0.00033945749,"MEAN_MOTION_DOT":-1.13e-6,"MEAN_MOTION_DDOT":0},{"OBJECT_NAME":"ONEWEB-0675","OBJECT_ID":"2023-029AQ","EPOCH":"2025-12-16T06:16:18.368544","MEAN_MOTION":13.1972462,"ECCENTRICITY":0.00015244,"INCLINATION":87.9192,"RA_OF_ASC_NODE":341.3855,"ARG_OF_PERICENTER":85.4441,"MEAN_ANOMALY":274.6866,"EPHEMERIS_TYPE":0,"CLASSIFICATION_TYPE":"U","NORAD_CAT_ID":55834,"ELEMENT_SET_NO":999,"REV_AT_EPOCH":13479,"BSTAR":8.6059687e-5,"MEAN_MOTION_DOT":4.7e-7,"MEAN_MOTION_DDOT":0},{"OBJECT_NAME":"ONEWEB-0720","OBJECT_ID":"2023-029AR","EPOCH":"2025-12-16T00:37:24.202848","MEAN_MOTION":13.19724691,"ECCENTRICITY":0.00020118,"INCLINATION":87.9192,"RA_OF_ASC_NODE":341.4304,"ARG_OF_PERICENTER":78.2783,"MEAN_ANOMALY":281.8576,"EPHEMERIS_TYPE":0,"CLASSIFICATION_TYPE":"U","NORAD_CAT_ID":55835,"ELEMENT_SET_NO":999,"REV_AT_EPOCH":13468,"BSTAR":8.358856e-6,"MEAN_MOTION_DOT":1.6e-7,"MEAN_MOTION_DDOT":0},{"OBJECT_NAME":"ONEWEB-0537","OBJECT_ID":"2023-043A","EPOCH":"2025-12-16T06:28:40.371744","MEAN_MOTION":13.16596258,"ECCENTRICITY":0.0001464,"INCLINATION":87.9042,"RA_OF_ASC_NODE":265.1932,"ARG_OF_PERICENTER":75.3377,"MEAN_ANOMALY":284.7917,"EPHEMERIS_TYPE":0,"CLASSIFICATION_TYPE":"U","NORAD_CAT_ID":56046,"ELEMENT_SET_NO":999,"REV_AT_EPOCH":13489,"BSTAR":-0.00031829395,"MEAN_MOTION_DOT":-1.09e-6,"MEAN_MOTION_DDOT":0},{"OBJECT_NAME":"ONEWEB-0538","OBJECT_ID":"2023-043B","EPOCH":"2025-12-16T08:08:58.629408","MEAN_MOTION":13.16595772,"ECCENTRICITY":0.00015789,"INCLINATION":87.9046,"RA_OF_ASC_NODE":265.1833,"ARG_OF_PERICENTER":64.4,"MEAN_ANOMALY":295.7294,"EPHEMERIS_TYPE":0,"CLASSIFICATION_TYPE":"U","NORAD_CAT_ID":56047,"ELEMENT_SET_NO":999,"REV_AT_EPOCH":13491,"BSTAR":-4.2500163e-5,"MEAN_MOTION_DOT":-3.0e-8,"MEAN_MOTION_DDOT":0},{"OBJECT_NAME":"ONEWEB-0546","OBJECT_ID":"2023-043C","EPOCH":"2025-12-16T07:50:44.846880","MEAN_MOTION":13.16596431,"ECCENTRICITY":0.00011248,"INCLINATION":87.906,"RA_OF_ASC_NODE":265.1779,"ARG_OF_PERICENTER":89.9472,"MEAN_ANOMALY":270.1788,"EPHEMERIS_TYPE":0,"CLASSIFICATION_TYPE":"U","NORAD_CAT_ID":56048,"ELEMENT_SET_NO":999,"REV_AT_EPOCH":13490,"BSTAR":-0.0002250138,"MEAN_MOTION_DOT":-7.3e-7,"MEAN_MOTION_DDOT":0},{"OBJECT_NAME":"ONEWEB-0547","OBJECT_ID":"2023-043D","EPOCH":"2025-12-16T06:58:35.909760","MEAN_MOTION":13.21825394,"ECCENTRICITY":0.0001863,"INCLINATION":87.9222,"RA_OF_ASC_NODE":280.4528,"ARG_OF_PERICENTER":71.7509,"MEAN_ANOMALY":288.3828,"EPHEMERIS_TYPE":0,"CLASSIFICATION_TYPE":"U","NORAD_CAT_ID":56049,"ELEMENT_SET_NO":999,"REV_AT_EPOCH":13406,"BSTAR":0.00011085028,"MEAN_MOTION_DOT":5.9e-7,"MEAN_MOTION_DDOT":0},{"OBJECT_NAME":"ONEWEB-0548","OBJECT_ID":"2023-043E","EPOCH":"2025-12-16T06:36:39.066624","MEAN_MOTION":13.16594113,"ECCENTRICITY":0.00020922,"INCLINATION":87.9039,"RA_OF_ASC_NODE":265.1945,"ARG_OF_PERICENTER":84.7785,"MEAN_ANOMALY":275.3585,"EPHEMERIS_TYPE":0,"CLASSIFICATION_TYPE":"U","NORAD_CAT_ID":56050,"ELEMENT_SET_NO":999,"REV_AT_EPOCH":13489,"BSTAR":-0.00010454492,"MEAN_MOTION_DOT":-2.7e-7,"MEAN_MOTION_DDOT":0},{"OBJECT_NAME":"ONEWEB-0549","OBJECT_ID":"2023-043F","EPOCH":"2025-12-16T06:47:55.679712","MEAN_MOTION":13.21826433,"ECCENTRICITY":0.00018265,"INCLINATION":87.9223,"RA_OF_ASC_NODE":280.4683,"ARG_OF_PERICENTER":67.9029,"MEAN_ANOMALY":292.2298,"EPHEMERIS_TYPE":0,"CLASSIFICATION_TYPE":"U","NORAD_CAT_ID":56051,"ELEMENT_SET_NO":999,"REV_AT_EPOCH":13406,"BSTAR":-2.9045495e-5,"MEAN_MOTION_DOT":1.0e-8,"MEAN_MOTION_DDOT":0},{"OBJECT_NAME":"ONEWEB-0550","OBJECT_ID":"2023-043G","EPOCH":"2025-12-16T08:17:56.732064","MEAN_MOTION":13.21829312,"ECCENTRICITY":0.00018352,"INCLINATION":87.9221,"RA_OF_ASC_NODE":280.4506,"ARG_OF_PERICENTER":80.9358,"MEAN_ANOMALY":279.1983,"EPHEMERIS_TYPE":0,"CLASSIFICATION_TYPE":"U","NORAD_CAT_ID":56052,"ELEMENT_SET_NO":999,"REV_AT_EPOCH":13407,"BSTAR":-0.0028513463,"MEAN_MOTION_DOT":-1.164e-5,"MEAN_MOTION_DDOT":0},{"OBJECT_NAME":"ONEWEB-0551","OBJECT_ID":"2023-043H","EPOCH":"2025-12-16T07:31:19.347168","MEAN_MOTION":13.1554962,"ECCENTRICITY":0.0001923,"INCLINATION":87.8996,"RA_OF_ASC_NODE":295.7246,"ARG_OF_PERICENTER":72.4238,"MEAN_ANOMALY":287.7103,"EPHEMERIS_TYPE":0,"CLASSIFICATION_TYPE":"U","NORAD_CAT_ID":56053,"ELEMENT_SET_NO":999,"REV_AT_EPOCH":13235,"BSTAR":0.00052573814,"MEAN_MOTION_DOT":2.11e-6,"MEAN_MOTION_DDOT":0},{"OBJECT_NAME":"ONEWEB-0552","OBJECT_ID":"2023-043J","EPOCH":"2025-12-16T08:10:51.588768","MEAN_MOTION":13.21827014,"ECCENTRICITY":0.00019979,"INCLINATION":87.9219,"RA_OF_ASC_NODE":280.4604,"ARG_OF_PERICENTER":71.1171,"MEAN_ANOMALY":289.0179,"EPHEMERIS_TYPE":0,"CLASSIFICATION_TYPE":"U","NORAD_CAT_ID":56054,"ELEMENT_SET_NO":999,"REV_AT_EPOCH":13407,"BSTAR":4.8137628e-5,"MEAN_MOTION_DOT":3.3e-7,"MEAN_MOTION_DDOT":0},{"OBJECT_NAME":"ONEWEB-0553","OBJECT_ID":"2023-043K","EPOCH":"2025-12-16T07:59:51.456480","MEAN_MOTION":13.16595779,"ECCENTRICITY":0.00014589,"INCLINATION":87.9046,"RA_OF_ASC_NODE":265.1837,"ARG_OF_PERICENTER":84.2343,"MEAN_ANOMALY":275.8954,"EPHEMERIS_TYPE":0,"CLASSIFICATION_TYPE":"U","NORAD_CAT_ID":56055,"ELEMENT_SET_NO":999,"REV_AT_EPOCH":13491,"BSTAR":-8.7513185e-5,"MEAN_MOTION_DOT":-2.1e-7,"MEAN_MOTION_DDOT":0},{"OBJECT_NAME":"ONEWEB-0554","OBJECT_ID":"2023-043L","EPOCH":"2025-12-16T07:41:37.041504","MEAN_MOTION":13.1659214,"ECCENTRICITY":0.00018844,"INCLINATION":87.9033,"RA_OF_ASC_NODE":265.1999,"ARG_OF_PERICENTER":81.7499,"MEAN_ANOMALY":278.3846,"EPHEMERIS_TYPE":0,"CLASSIFICATION_TYPE":"U","NORAD_CAT_ID":56056,"ELEMENT_SET_NO":999,"REV_AT_EPOCH":13489,"BSTAR":-0.00010420612,"MEAN_MOTION_DOT":-2.7e-7,"MEAN_MOTION_DDOT":0},{"OBJECT_NAME":"ONEWEB-0555","OBJECT_ID":"2023-043M","EPOCH":"2025-12-16T06:46:54.717600","MEAN_MOTION":13.16595975,"ECCENTRICITY":0.00012904,"INCLINATION":87.9043,"RA_OF_ASC_NODE":265.1886,"ARG_OF_PERICENTER":88.9928,"MEAN_ANOMALY":271.1351,"EPHEMERIS_TYPE":0,"CLASSIFICATION_TYPE":"U","NORAD_CAT_ID":56057,"ELEMENT_SET_NO":999,"REV_AT_EPOCH":13489,"BSTAR":0.00023397092,"MEAN_MOTION_DOT":1.02e-6,"MEAN_MOTION_DDOT":0},{"OBJECT_NAME":"ONEWEB-0557","OBJECT_ID":"2023-043N","EPOCH":"2025-12-16T05:17:58.193952","MEAN_MOTION":13.16597323,"ECCENTRICITY":0.000216,"INCLINATION":87.9042,"RA_OF_ASC_NODE":265.2139,"ARG_OF_PERICENTER":111.4186,"MEAN_ANOMALY":248.7176,"EPHEMERIS_TYPE":0,"CLASSIFICATION_TYPE":"U","NORAD_CAT_ID":56058,"ELEMENT_SET_NO":999,"REV_AT_EPOCH":13488,"BSTAR":0.0004281684,"MEAN_MOTION_DOT":1.77e-6,"MEAN_MOTION_DDOT":0}]
