ONEWEB-0674             
1 55833U 23029AP  25350.34565578 -.00000113  00000+0 -33946-3 0  9992
2 55833  87.8987 326.1612 0002282  89.4979 270.6413 13.14503867135396
ONEWEB-0675             
1 55834U 23029AQ  25350.26132371  .00000047  00000+0  86060-4 0  9995
2 55834  87.9192 341.3855 0001524  85.4441 274.6866 13.19724620134798
ONEWEB-0720             
1 55835U 23029AR  25350.02597457  .00000016  00000+0  83589-5 0  9990
2 55835  87.9192 341.4304 0002011  78.2783 281.8576 13.19724691134684
ONEWEB-0537             
1 56046U 23043A   25350.26991171 -.00000109  00000+0 -31829-3 0  9991
2 56046  87.9042 265.1932 0001464  75.3377 284.7917 13.16596258134897
ONEWEB-0538             
1 56047U 23043B   25350.33956747 -.00000003  00000+0 -42500-4 0  9992
2 56047  87.9046 265.1833 0001578  64.4000 295.7294 13.16595772134913
ONEWEB-0546             
1 56048U 23043C   25350.32690795 -.00000073  00000+0 -22501-3 0  9995
2 56048  87.9060 265.1779 0001124  89.9472 270.1788 13.16596431134908
ONEWEB-0547             
1 56049U 23043D   25350.29069340  .00000059  00000+0  11085-3 0  9995
2 56049  87.9222 280.4528 0001863  71.7509 288.3828 13.21825394134063
ONEWEB-0548             
1 56050U 23043E   25350.27545216 -.00000027  00000+0 -10454-3 0  9992
2 56050  87.9039 265.1945 0002092  84.7785 275.3585 13.16594113134892
ONEWEB-0549             
1 56051U 23043F   25350.28328333  .00000001  00000+0 -29045-4 0  9991
2 56051  87.9223 280.4683 0001826  67.9029 292.2298 13.21826433134062
ONEWEB-0550             
1 56052U 23043G   25350.34579551 -.00001164  00000+0 -28513-2 0  9998
2 56052  87.9221 280.4506 0001835  80.9358 279.1983 13.21829312134070
ONEWEB-0551             
1 56053U 23043H   25350.31341837  .00000211  00000+0  52574-3 0  9995
2 56053  87.8996 295.7246 0001923  72.4238 287.7103 13.15549620132352
ONEWEB-0552             
1 56054U 23043J   25350.34087487  .00000033  00000+0  48138-4 0  9991
2 56054  87.9219 280.4604 0001997  71.1171 289.0179 13.21827014134076
ONEWEB-0553             
1 56055U 23043K   25350.33323445 -.00000021  00000+0 -87513-4 0  9997
2 56055  87.9046 265.1837 0001458  84.2343 275.8954 13.16595779134912
ONEWEB-0554             
1 56056U 23043L   25350.32056761 -.00000027  00000+0 -10421-3 0  9990
2 56056  87.9033 265.1999 0001884  81.7499 278.3846 13.16592140134899
ONEWEB-0555             
1 56057U 23043M   25350.28257775  .00000102  00000+0  23397-3 0  9992
2 56057  87.9043 265.1886 0001290  88.9928 271.1351 13.16595975134894
ONEWEB-0557             
1 56058U 23043N   25350.22081243  .00000177  00000+0  42817-3 0  9992
2 56058  87.9042 265.2139 0002160 111.4186 248.7176 13.16597323134884
